[{"OBJECT_NAME":"STARLINK-4291","OBJECT_ID":"2022-076C","EPOCH":"2026-03-09T12:13:03.705888","MEAN_MOTION":15.08832472,"ECCENTRICITY":0.00014193,"INCLINATION":53.2165,"RA_OF_ASC_NODE":94.9284,"ARG_OF_PERICENTER":87.4333,"MEAN_ANOMALY":272.6821,"EPHEMERIS_TYPE":0,"CLASSIFICATION_TYPE":"U","NORAD_CAT_ID":52988,"ELEMENT_SET_NO":999,"REV_AT_EPOCH":20281,"BSTAR":4.8660881e-5,"MEAN_MOTION_DOT":4.86e-6,"MEAN_MOTION_DDOT":0},{"OBJECT_NAME":"OBJECT E","OBJECT_ID":"2024-205E","EPOCH":"2026-03-09T21:50:57.607872","MEAN_MOTION":15.117677,"ECCENTRICITY":0.00499914,"INCLINATION":97.419,"RA_OF_ASC_NODE":142.6836,"ARG_OF_PERICENTER":337.9131,"MEAN_ANOMALY":21.9945,"EPHEMERIS_TYPE":0,"CLASSIFICATION_TYPE":"U","NORAD_CAT_ID":61898,"ELEMENT_SET_NO":999,"REV_AT_EPOCH":7323,"BSTAR":0.00048588417,"MEAN_MOTION_DOT":8.479e-5,"MEAN_MOTION_DDOT":0}]
